start=new Date('2021-11-17T00:00:00.000Z').valueOf();
sats=[{"TLE_LINE2":"2 48363  53.0551 223.5585 0001530  72.4349 287.6807 15.06403744 29826","MEAN_MOTION_DOT":"0.00001035","BSTAR":"0.00008834100000","REF_FRAME":"TEME","MEAN_ANOMALY":"287.6807","FILE":"3216827","CLASSIFICATION_TYPE":"U","SEMIMAJOR_AXIS":"6925.337","APOAPSIS":"548.262","INCLINATION":"53.0551","OBJECT_NAME":"STARLINK-2626","MEAN_MOTION_DDOT":"0.0000000000000","PERIAPSIS":"546.143","GP_ID":"189882701","ELEMENT_SET_NO":"999","RA_OF_ASC_NODE":"223.5585","SITE":"AFETR","CENTER_NAME":"EARTH","TIME_SYSTEM":"UTC","EPOCH":"2021-11-16T11:15:07.698240","MEAN_ELEMENT_THEORY":"SGP4","NORAD_CAT_ID":"48363","PERIOD":"95.592","REV_AT_EPOCH":"2982","OBJECT_TYPE":"PAYLOAD","COUNTRY_CODE":"US","ARG_OF_PERICENTER":"72.4349","ECCENTRICITY":"0.00015300","RCS_SIZE":"LARGE","LAUNCH_DATE":"2021-05-04","OBJECT_ID":"2021-038L","MEAN_MOTION":"15.06403744","DECAY_DATE":null,"EPHEMERIS_TYPE":"0","TLE_LINE1":"1 48363U 21038L   21320.46883910  .00001035  00000-0  88341-4 0  9992"},{"MEAN_ELEMENT_THEORY":"SGP4","TIME_SYSTEM":"UTC","CENTER_NAME":"EARTH","EPOCH":"2021-11-16T11:08:28.392864","COUNTRY_CODE":"US","OBJECT_TYPE":"PAYLOAD","REV_AT_EPOCH":"2982","ARG_OF_PERICENTER":"65.8436","NORAD_CAT_ID":"48364","PERIOD":"95.592","CLASSIFICATION_TYPE":"U","APOAPSIS":"548.535","INCLINATION":"53.0557","SEMIMAJOR_AXIS":"6925.342","MEAN_MOTION_DOT":"0.00001801","TLE_LINE2":"2 48364  53.0557 223.5812 0001918  65.8436 294.2753 15.06402077 29821","FILE":"3216827","MEAN_ANOMALY":"294.2753","BSTAR":"0.00013976000000","REF_FRAME":"TEME","GP_ID":"189880948","ELEMENT_SET_NO":"999","SITE":"AFETR","RA_OF_ASC_NODE":"223.5812","MEAN_MOTION_DDOT":"0.0000000000000","PERIAPSIS":"545.879","OBJECT_NAME":"STARLINK-2611","DECAY_DATE":null,"MEAN_MOTION":"15.06402077","TLE_LINE1":"1 48364U 21038M   21320.46421751  .00001801  00000-0  13976-3 0  9996","EPHEMERIS_TYPE":"0","LAUNCH_DATE":"2021-05-04","OBJECT_ID":"2021-038M","RCS_SIZE":"LARGE","ECCENTRICITY":"0.00019180"},{"RCS_SIZE":"LARGE","ECCENTRICITY":"0.00016380","OBJECT_ID":"2021-038N","LAUNCH_DATE":"2021-05-04","MEAN_MOTION":"15.06391514","DECAY_DATE":null,"EPHEMERIS_TYPE":"0","TLE_LINE1":"1 48365U 21038N   21320.44304692 -.00000249  00000-0  22072-5 0  9994","MEAN_ANOMALY":"282.9757","FILE":"3216827","BSTAR":"0.00000220720000","REF_FRAME":"TEME","MEAN_MOTION_DOT":"-0.00000249","TLE_LINE2":"2 48365  53.0559 223.6823 0001638  77.1415 282.9757 15.06391514 29820","APOAPSIS":"548.374","INCLINATION":"53.0559","SEMIMAJOR_AXIS":"6925.375","CLASSIFICATION_TYPE":"U","PERIAPSIS":"546.105","MEAN_MOTION_DDOT":"0.0000000000000","OBJECT_NAME":"STARLINK-2608","SITE":"AFETR","RA_OF_ASC_NODE":"223.6823","ELEMENT_SET_NO":"999","GP_ID":"189881192","EPOCH":"2021-11-16T10:37:59.253888","CENTER_NAME":"EARTH","TIME_SYSTEM":"UTC","MEAN_ELEMENT_THEORY":"SGP4","PERIOD":"95.593","NORAD_CAT_ID":"48365","ARG_OF_PERICENTER":"77.1415","OBJECT_TYPE":"PAYLOAD","COUNTRY_CODE":"US","REV_AT_EPOCH":"2982"},{"MEAN_MOTION_DDOT":"0.0000000000000","PERIAPSIS":"546.053","OBJECT_NAME":"STARLINK-2631","SITE":"AFETR","RA_OF_ASC_NODE":"218.7319","GP_ID":"189881950","ELEMENT_SET_NO":"999","FILE":"3216827","MEAN_ANOMALY":"285.4643","REF_FRAME":"TEME","BSTAR":"0.00015275000000","MEAN_MOTION_DOT":"0.00001994","TLE_LINE2":"2 48366  53.0549 218.7319 0001675  74.6531 285.4643 15.06400036 29885","APOAPSIS":"548.373","INCLINATION":"53.0549","SEMIMAJOR_AXIS":"6925.348","CLASSIFICATION_TYPE":"U","PERIOD":"95.592","NORAD_CAT_ID":"48366","ARG_OF_PERICENTER":"74.6531","COUNTRY_CODE":"US","OBJECT_TYPE":"PAYLOAD","REV_AT_EPOCH":"2988","EPOCH":"2021-11-16T10:20:04.336800","TIME_SYSTEM":"UTC","CENTER_NAME":"EARTH","MEAN_ELEMENT_THEORY":"SGP4","RCS_SIZE":"LARGE","ECCENTRICITY":"0.00016750","OBJECT_ID":"2021-038P","LAUNCH_DATE":"2021-05-04","EPHEMERIS_TYPE":"0","TLE_LINE1":"1 48366U 21038P   21320.43060575  .00001994  00000-0  15275-3 0  9995","MEAN_MOTION":"15.06400036","DECAY_DATE":null},{"NORAD_CAT_ID":"48367","PERIOD":"95.592","COUNTRY_CODE":"US","OBJECT_TYPE":"PAYLOAD","REV_AT_EPOCH":"2988","ARG_OF_PERICENTER":"75.5836","TIME_SYSTEM":"UTC","CENTER_NAME":"EARTH","EPOCH":"2021-11-16T10:14:45.471552","MEAN_ELEMENT_THEORY":"SGP4","MEAN_MOTION_DDOT":"0.0000000000000","PERIAPSIS":"545.961","OBJECT_NAME":"STARLINK-2643","GP_ID":"189883053","ELEMENT_SET_NO":"999","SITE":"AFETR","RA_OF_ASC_NODE":"218.7595","MEAN_MOTION_DOT":"0.00000208","TLE_LINE2":"2 48367  53.0566 218.7595 0001806  75.5836 284.5353 15.06400558 29882","FILE":"3216827","MEAN_ANOMALY":"284.5353","BSTAR":"0.00003288200000","REF_FRAME":"TEME","CLASSIFICATION_TYPE":"U","APOAPSIS":"548.463","INCLINATION":"53.0566","SEMIMAJOR_AXIS":"6925.347","EPHEMERIS_TYPE":"0","TLE_LINE1":"1 48367U 21038Q   21320.42691518  .00000208  00000-0  32882-4 0  9993","MEAN_MOTION":"15.06400558","DECAY_DATE":null,"RCS_SIZE":"LARGE","ECCENTRICITY":"0.00018060","LAUNCH_DATE":"2021-05-04","OBJECT_ID":"2021-038Q"},{"ECCENTRICITY":"0.00017180","RCS_SIZE":"LARGE","LAUNCH_DATE":"2021-05-04","OBJECT_ID":"2021-038R","EPHEMERIS_TYPE":"0","TLE_LINE1":"1 48368U 21038R   21320.44439655  .00005011  00000-0  35494-3 0  9996","MEAN_MOTION":"15.06413467","DECAY_DATE":null,"OBJECT_NAME":"STARLINK-2623","MEAN_MOTION_DDOT":"0.0000000000000","PERIAPSIS":"545.983","ELEMENT_SET_NO":"999","GP_ID":"189881449","RA_OF_ASC_NODE":"218.6674","SITE":"AFETR","TLE_LINE2":"2 48368  53.0538 218.6674 0001718  80.0977 280.0205 15.06413467 29899","MEAN_MOTION_DOT":"0.00005011","REF_FRAME":"TEME","BSTAR":"0.00035494000000","MEAN_ANOMALY":"280.0205","FILE":"3216827","CLASSIFICATION_TYPE":"U","SEMIMAJOR_AXIS":"6925.307","APOAPSIS":"548.362","INCLINATION":"53.0538","NORAD_CAT_ID":"48368","PERIOD":"95.591","REV_AT_EPOCH":"2989","OBJECT_TYPE":"PAYLOAD","COUNTRY_CODE":"US","ARG_OF_PERICENTER":"80.0977","CENTER_NAME":"EARTH","TIME_SYSTEM":"UTC","EPOCH":"2021-11-16T10:39:55.861920","MEAN_ELEMENT_THEORY":"SGP4"},{"EPOCH":"2021-11-16T10:09:27.826272","CENTER_NAME":"EARTH","TIME_SYSTEM":"UTC","MEAN_ELEMENT_THEORY":"SGP4","PERIOD":"95.593","NORAD_CAT_ID":"48369","ARG_OF_PERICENTER":"64.3006","REV_AT_EPOCH":"2988","COUNTRY_CODE":"US","OBJECT_TYPE":"PAYLOAD","BSTAR":"0.00012818000000","REF_FRAME":"TEME","FILE":"3216827","MEAN_ANOMALY":"295.8166","TLE_LINE2":"2 48369  53.0537 218.7689 0001774  64.3006 295.8166 15.06392551 29885","MEAN_MOTION_DOT":"0.00001628","SEMIMAJOR_AXIS":"6925.371","INCLINATION":"53.0537","APOAPSIS":"548.465","CLASSIFICATION_TYPE":"U","OBJECT_NAME":"STARLINK-2641","PERIAPSIS":"546.008","MEAN_MOTION_DDOT":"0.0000000000000","RA_OF_ASC_NODE":"218.7689","SITE":"AFETR","GP_ID":"189881693","ELEMENT_SET_NO":"999","MEAN_MOTION":"15.06392551","DECAY_DATE":null,"EPHEMERIS_TYPE":"0","TLE_LINE1":"1 48369U 21038S   21320.42323873  .00001628  00000-0  12818-3 0  9994","ECCENTRICITY":"0.00017740","RCS_SIZE":"LARGE","OBJECT_ID":"2021-038S","LAUNCH_DATE":"2021-05-04"},{"OBJECT_NAME":"STARLINK-2621","MEAN_MOTION_DDOT":"0.0000000000000","PERIAPSIS":"546.087","RA_OF_ASC_NODE":"218.7828","SITE":"AFETR","GP_ID":"189882451","ELEMENT_SET_NO":"999","BSTAR":"-0.00001705600000","REF_FRAME":"TEME","FILE":"3216827","MEAN_ANOMALY":"292.2861","TLE_LINE2":"2 48370  53.0549 218.7828 0001702  67.8308 292.2861 15.06383125 29889","MEAN_MOTION_DOT":"-0.00000535","SEMIMAJOR_AXIS":"6925.400","INCLINATION":"53.0549","APOAPSIS":"548.444","CLASSIFICATION_TYPE":"U","PERIOD":"95.593","NORAD_CAT_ID":"48370","ARG_OF_PERICENTER":"67.8308","REV_AT_EPOCH":"2988","COUNTRY_CODE":"US","OBJECT_TYPE":"PAYLOAD","EPOCH":"2021-11-16T10:04:08.883264","TIME_SYSTEM":"UTC","CENTER_NAME":"EARTH","MEAN_ELEMENT_THEORY":"SGP4","ECCENTRICITY":"0.00017020","RCS_SIZE":"LARGE","OBJECT_ID":"2021-038T","LAUNCH_DATE":"2021-05-04","EPHEMERIS_TYPE":"0","TLE_LINE1":"1 48370U 21038T   21320.41954726 -.00000535  00000-0 -17056-4 0  9990","MEAN_MOTION":"15.06383125","DECAY_DATE":null},{"CENTER_NAME":"EARTH","TIME_SYSTEM":"UTC","EPOCH":"2021-11-16T09:58:50.697984","MEAN_ELEMENT_THEORY":"SGP4","NORAD_CAT_ID":"48371","PERIOD":"95.592","REV_AT_EPOCH":"2988","OBJECT_TYPE":"PAYLOAD","COUNTRY_CODE":"US","ARG_OF_PERICENTER":"68.2554","TLE_LINE2":"2 48371  53.0559 218.8058 0001892  68.2554 291.8636 15.06394919 29883","MEAN_MOTION_DOT":"0.00000334","BSTAR":"0.00004130300000","REF_FRAME":"TEME","MEAN_ANOMALY":"291.8636","FILE":"3216827","CLASSIFICATION_TYPE":"U","SEMIMAJOR_AXIS":"6925.364","APOAPSIS":"548.539","INCLINATION":"53.0559","OBJECT_NAME":"STARLINK-2589","PERIAPSIS":"545.919","MEAN_MOTION_DDOT":"0.0000000000000","ELEMENT_SET_NO":"999","GP_ID":"189882702","RA_OF_ASC_NODE":"218.8058","SITE":"AFETR","MEAN_MOTION":"15.06394919","DECAY_DATE":null,"EPHEMERIS_TYPE":"0","TLE_LINE1":"1 48371U 21038U   21320.41586456  .00000334  00000-0  41303-4 0  9999","ECCENTRICITY":"0.00018920","RCS_SIZE":"LARGE","LAUNCH_DATE":"2021-05-04","OBJECT_ID":"2021-038U"},{"CENTER_NAME":"EARTH","TIME_SYSTEM":"UTC","EPOCH":"2021-11-16T09:53:30.526368","MEAN_ELEMENT_THEORY":"SGP4","NORAD_CAT_ID":"48372","PERIOD":"95.592","REV_AT_EPOCH":"2988","OBJECT_TYPE":"PAYLOAD","COUNTRY_CODE":"US","ARG_OF_PERICENTER":"76.1407","TLE_LINE2":"2 48372  53.0558 218.8195 0001721  76.1407 283.9774 15.06408058 29886","MEAN_MOTION_DOT":"0.00000816","REF_FRAME":"TEME","BSTAR":"0.00007363100000","MEAN_ANOMALY":"283.9774","FILE":"3216827","CLASSIFICATION_TYPE":"U","SEMIMAJOR_AXIS":"6925.324","APOAPSIS":"548.381","INCLINATION":"53.0558","OBJECT_NAME":"STARLINK-2572","MEAN_MOTION_DDOT":"0.0000000000000","PERIAPSIS":"545.997","ELEMENT_SET_NO":"999","GP_ID":"189880949","RA_OF_ASC_NODE":"218.8195","SITE":"AFETR","MEAN_MOTION":"15.06408058","DECAY_DATE":null,"EPHEMERIS_TYPE":"0","TLE_LINE1":"1 48372U 21038V   21320.41215887  .00000816  00000-0  73631-4 0  9991","ECCENTRICITY":"0.00017210","RCS_SIZE":"LARGE","LAUNCH_DATE":"2021-05-04","OBJECT_ID":"2021-038V"}];
